STARLINK-32200          
1 60258U 24131D   26068.35310926 -.00000552  00000+0 -65042-5 0  9998
2 60258  53.1613  54.2398 0001406  84.0345 276.0816 15.30190327 91661
TOMORROW-S2             
1 60485U 24149T   26068.75188364  .00008133  00000+0  27683-3 0  9990
2 60485  97.3857 150.0385 0001648 234.3331 125.7757 15.30674935 86869
